[{"OBJECT_NAME":"LAPAN-A3","OBJECT_ID":"2016-040E","EPOCH":"2026-03-09T23:01:57.724896","MEAN_MOTION":15.3238951,"ECCENTRICITY":0.00109839,"INCLINATION":97.1488,"RA_OF_ASC_NODE":68.4254,"ARG_OF_PERICENTER":22.062,"MEAN_ANOMALY":338.1093,"EPHEMERIS_TYPE":0,"CLASSIFICATION_TYPE":"U","NORAD_CAT_ID":41603,"ELEMENT_SET_NO":999,"REV_AT_EPOCH":53961,"BSTAR":0.00017567445,"MEAN_MOTION_DOT":5.428e-5,"MEAN_MOTION_DDOT":0},{"OBJECT_NAME":"STARLINK-33725","OBJECT_ID":"2025-087W","EPOCH":"2026-03-09T16:58:04.198656","MEAN_MOTION":15.3017787,"ECCENTRICITY":0.0001106,"INCLINATION":53.1574,"RA_OF_ASC_NODE":219.3748,"ARG_OF_PERICENTER":58.29,"MEAN_ANOMALY":301.8208,"EPHEMERIS_TYPE":0,"CLASSIFICATION_TYPE":"U","NORAD_CAT_ID":63717,"ELEMENT_SET_NO":999,"REV_AT_EPOCH":4920,"BSTAR":0.0015649441,"MEAN_MOTION_DOT":0.00046247,"MEAN_MOTION_DDOT":0}]
